0 COSMOS 2346
1 24953U 97052A   13283.42203992  .00000033  00000-0  16527-4 0  8770
2 24953 082.9249 215.8644 0040206 025.1673 103.7471 13.79502184807935
0 COSMOS 2346
1 24953U 97052A   13284.43927758  .00000033  00000-0  16796-4 0  8784
2 24953 082.9251 215.1032 0040143 022.3270 115.5421 13.79502233808071
0 COSMOS 2346
1 24953U 97052A   13285.80077731  .00000037  00000-0  21365-4 0  8796
2 24953 082.9252 214.0843 0040059 018.5565 036.9773 13.79502181808269
0 COSMOS 2346
1 24953U 97052A   13286.81547904  .00000049  00000-0  32870-4 0  8800
2 24953 082.9254 213.3250 0039994 015.7245 036.1777 13.79502160808404
0 COSMOS 2346
1 24953U 97052A   13288.13504270  .00000085  00000-0  67763-4 0  8816
2 24953 082.9255 212.3377 0039899 012.0139 109.4091 13.79502207808584
0 COSMOS 2346
1 24953U 97052A   13289.14908586  .00000090  00000-0  71971-4 0  8829
2 24953 082.9255 211.5790 0039814 009.1084 105.4151 13.79502262808727
0 COSMOS 2346
1 24953U 97052A   13290.38705866  .00000090  00000-0  71862-4 0  8833
2 24953 082.9253 210.6528 0039721 005.6503 133.4248 13.79502425808895
0 COSMOS 2346
1 24953U 97052A   13291.40241744  .00000085  00000-0  66955-4 0  8849
2 24953 082.9253 209.8932 0039649 002.7907 135.9146 13.79502532809039
0 COSMOS 2346
1 24953U 97052A   13292.83636330  .00000071  00000-0  54140-4 0  8855
2 24953 082.9252 208.8204 0039550 358.7446 057.2058 13.79502695809232
0 COSMOS 2346
1 24953U 97052A   13294.15726569  .00000065  00000-0  47782-4 0  8864
2 24953 082.9251 207.8322 0039464 355.0362 137.0803 13.79502966809418
0 COSMOS 2346
1 24953U 97052A   13295.16772392  .00000073  00000-0  56173-4 0  8875
2 24953 082.9252 207.0761 0039394 352.1706 115.2550 13.79503259809558
0 COSMOS 2346
1 24953U 97052A   13296.18353362  .00000066  00000-0  49098-4 0  8881
2 24953 082.9252 206.3161 0039330 349.2318 120.0649 13.79503460809692
